{
  "type": "FeatureCollection",
  "features": [
    {
      "type": "Feature",
      "properties": {
        "norad_id": 37126,
        "name": "COSMOS 2251 DEB",
        "group": "cosmos-2251-debris",
        "lat": -48.781474541586064,
        "lon": -51.56686092169194,
        "alt_km": 680.1441348265798,
        "timestamp": "2025-12-26T11:25:45.587688+00:00",
        "meta_object_name": "COSMOS 2251 DEB",
        "meta_object_id": "1993-036BGY",
        "meta_epoch": "2025-12-25T14:28:40.048320",
        "meta_mean_motion": 14.73111648,
        "meta_eccentricity": 0.0122556,
        "meta_inclination": 73.9501,
        "meta_ra_of_asc_node": 329.3283,
        "meta_arg_of_pericenter": 204.6714,
        "meta_mean_anomaly": 154.8568,
        "meta_ephemeris_type": 0,
        "meta_classification_type": "U",
        "meta_norad_cat_id": 37126,
        "meta_element_set_no": 999,
        "meta_rev_at_epoch": 8288,
        "meta_bstar": 0.00020497,
        "meta_mean_motion_dot": 1.448e-05,
        "meta_mean_motion_ddot": 0,
        "tle_line1": "1 37126U 93036BGY 25359.60324130  .00001448  00000+0  20497-3 0  9994",
        "tle_line2": "2 37126  73.9501 329.3283 0122556 204.6714 154.8568 14.73111648 82880"
      },
      "geometry": {
        "type": "Point",
        "coordinates": [
          -51.56686092169194,
          -48.781474541586064
        ]
      }
    },
    {
      "type": "Feature",
      "properties": {
        "norad_id": 37132,
        "name": "COSMOS 2251 DEB",
        "group": "cosmos-2251-debris",
        "lat": -54.85106197074675,
        "lon": 51.06913282422173,
        "alt_km": 657.0620448358595,
        "timestamp": "2025-12-26T11:25:45.587697+00:00",
        "meta_object_name": "COSMOS 2251 DEB",
        "meta_object_id": "1993-036BHE",
        "meta_epoch": "2025-12-21T08:30:46.700352",
        "meta_mean_motion": 14.77932958,
        "meta_eccentricity": 0.00403307,
        "meta_inclination": 74.0023,
        "meta_ra_of_asc_node": 217.0951,
        "meta_arg_of_pericenter": 11.0309,
        "meta_mean_anomaly": 349.1741,
        "meta_ephemeris_type": 0,
        "meta_classification_type": "U",
        "meta_norad_cat_id": 37132,
        "meta_element_set_no": 999,
        "meta_rev_at_epoch": 62543,
        "meta_bstar": 0.0006420237,
        "meta_mean_motion_dot": 4.657e-05,
        "meta_mean_motion_ddot": 0,
        "tle_line1": "1 37132U 93036BHE 25355.35470718  .00004657  00000+0  64202-3 0  9990",
        "tle_line2": "2 37132  74.0023 217.0951 0040330  11.0309 349.1741 14.77932958625437"
      },
      "geometry": {
        "type": "Point",
        "coordinates": [
          51.06913282422173,
          -54.85106197074675
        ]
      }
    },
    {
      "type": "Feature",
      "properties": {
        "norad_id": 37270,
        "name": "COSMOS 2251 DEB",
        "group": "cosmos-2251-debris",
        "lat": -33.58225083035737,
        "lon": -57.54608976278639,
        "alt_km": 746.4700818369702,
        "timestamp": "2025-12-26T11:25:45.587707+00:00",
        "meta_object_name": "COSMOS 2251 DEB",
        "meta_object_id": "1993-036BHJ",
        "meta_epoch": "2025-12-12T22:45:06.098400",
        "meta_mean_motion": 13.59808663,
        "meta_eccentricity": 0.03985351,
        "meta_inclination": 73.9378,
        "meta_ra_of_asc_node": 335.5481,
        "meta_arg_of_pericenter": 347.3958,
        "meta_mean_anomaly": 11.7404,
        "meta_ephemeris_type": 0,
        "meta_classification_type": "U",
        "meta_norad_cat_id": 37270,
        "meta_element_set_no": 999,
        "meta_rev_at_epoch": 77072,
        "meta_bstar": 0.0064936549,
        "meta_mean_motion_dot": 8.148e-05,
        "meta_mean_motion_ddot": 0,
        "tle_line1": "1 37270U 93036BHJ 25346.94798725  .00008148  00000+0  64937-2 0  9992",
        "tle_line2": "2 37270  73.9378 335.5481 0398535 347.3958  11.7404 13.59808663770728"
      },
      "geometry": {
        "type": "Point",
        "coordinates": [
          -57.54608976278639,
          -33.58225083035737
        ]
      }
    },
    {
      "type": "Feature",
      "properties": {
        "norad_id": 37278,
        "name": "COSMOS 2251 DEB",
        "group": "cosmos-2251-debris",
        "lat": -19.02006570269689,
        "lon": 150.26767720170386,
        "alt_km": 718.8797772873313,
        "timestamp": "2025-12-26T11:25:45.587716+00:00",
        "meta_object_name": "COSMOS 2251 DEB",
        "meta_object_id": "1993-036BHS",
        "meta_epoch": "2025-12-22T06:43:10.079328",
        "meta_mean_motion": 14.15136552,
        "meta_eccentricity": 0.02988964,
        "meta_inclination": 73.7862,
        "meta_ra_of_asc_node": 332.08,
        "meta_arg_of_pericenter": 152.8639,
        "meta_mean_anomaly": 274.4968,
        "meta_ephemeris_type": 0,
        "meta_classification_type": "U",
        "meta_norad_cat_id": 37278,
        "meta_element_set_no": 999,
        "meta_rev_at_epoch": 63964,
        "meta_bstar": 0.0007998951,
        "meta_mean_motion_dot": 2.366e-05,
        "meta_mean_motion_ddot": 0,
        "tle_line1": "1 37278U 93036BHS 25356.27997777  .00002366  00000+0  79990-3 0  9997",
        "tle_line2": "2 37278  73.7862 332.0800 0298896 152.8639 274.4968 14.15136552639645"
      },
      "geometry": {
        "type": "Point",
        "coordinates": [
          150.26767720170386,
          -19.02006570269689
        ]
      }
    },
    {
      "type": "Feature",
      "properties": {
        "norad_id": 37280,
        "name": "COSMOS 2251 DEB",
        "group": "cosmos-2251-debris",
        "lat": -6.569072600968361,
        "lon": 30.622675916643576,
        "alt_km": 921.0955245963887,
        "timestamp": "2025-12-26T11:25:45.587725+00:00",
        "meta_object_name": "COSMOS 2251 DEB",
        "meta_object_id": "1993-036BHU",
        "meta_epoch": "2025-12-24T08:42:55.097280",
        "meta_mean_motion": 14.19374869,
        "meta_eccentricity": 0.01298569,
        "meta_inclination": 74.0307,
        "meta_ra_of_asc_node": 36.2886,
        "meta_arg_of_pericenter": 162.4519,
        "meta_mean_anomaly": 198.1176,
        "meta_ephemeris_type": 0,
        "meta_classification_type": "U",
        "meta_norad_cat_id": 37280,
        "meta_element_set_no": 999,
        "meta_rev_at_epoch": 57488,
        "meta_bstar": 0.0012209104,
        "meta_mean_motion_dot": 2.768e-05,
        "meta_mean_motion_ddot": 0,
        "tle_line1": "1 37280U 93036BHU 25358.36313770  .00002768  00000+0  12209-2 0  9992",
        "tle_line2": "2 37280  74.0307  36.2886 0129856 162.4519 198.1176 14.19374869574882"
      },
      "geometry": {
        "type": "Point",
        "coordinates": [
          30.622675916643576,
          -6.569072600968361
        ]
      }
    },
    {
      "type": "Feature",
      "properties": {
        "norad_id": 37284,
        "name": "COSMOS 2251 DEB",
        "group": "cosmos-2251-debris",
        "lat": 27.438953974184262,
        "lon": 140.97389807903232,
        "alt_km": 881.7973252706297,
        "timestamp": "2025-12-26T11:25:45.587734+00:00",
        "meta_object_name": "COSMOS 2251 DEB",
        "meta_object_id": "1993-036BHY",
        "meta_epoch": "2025-12-10T18:04:20.469216",
        "meta_mean_motion": 14.12686618,
        "meta_eccentricity": 0.01605026,
        "meta_inclination": 74.0123,
        "meta_ra_of_asc_node": 160.2425,
        "meta_arg_of_pericenter": 312.4867,
        "meta_mean_anomaly": 59.8736,
        "meta_ephemeris_type": 0,
        "meta_classification_type": "U",
        "meta_norad_cat_id": 37284,
        "meta_element_set_no": 999,
        "meta_rev_at_epoch": 59147,
        "meta_bstar": 0.001592138,
        "meta_mean_motion_dot": 3.31e-05,
        "meta_mean_motion_ddot": 0,
        "tle_line1": "1 37284U 93036BHY 25344.75301469  .00003310  00000+0  15921-2 0  9994",
        "tle_line2": "2 37284  74.0123 160.2425 0160502 312.4867  59.8736 14.12686618591475"
      },
      "geometry": {
        "type": "Point",
        "coordinates": [
          140.97389807903232,
          27.438953974184262
        ]
      }
    },
    {
      "type": "Feature",
      "properties": {
        "norad_id": 37292,
        "name": "COSMOS 2251 DEB",
        "group": "cosmos-2251-debris",
        "lat": 44.133766932196735,
        "lon": 42.019045862043335,
        "alt_km": 734.9130775436342,
        "timestamp": "2025-12-26T11:25:45.587743+00:00",
        "meta_object_name": "COSMOS 2251 DEB",
        "meta_object_id": "1993-036BJG",
        "meta_epoch": "2025-12-02T14:04:30.366912",
        "meta_mean_motion": 14.03226454,
        "meta_eccentricity": 0.02102512,
        "meta_inclination": 74.129,
        "meta_ra_of_asc_node": 67.3453,
        "meta_arg_of_pericenter": 73.1105,
        "meta_mean_anomaly": 289.2966,
        "meta_ephemeris_type": 0,
        "meta_classification_type": "U",
        "meta_norad_cat_id": 37292,
        "meta_element_set_no": 999,
        "meta_rev_at_epoch": 59706,
        "meta_bstar": 0.0022453288,
        "meta_mean_motion_dot": 4.236e-05,
        "meta_mean_motion_ddot": 0,
        "tle_line1": "1 37292U 93036BJG 25336.58646258  .00004236  00000+0  22453-2 0  9999",
        "tle_line2": "2 37292  74.1290  67.3453 0210251  73.1105 289.2966 14.03226454597064"
      },
      "geometry": {
        "type": "Point",
        "coordinates": [
          42.019045862043335,
          44.133766932196735
        ]
      }
    }
  ]
}